CIC_OEM_VERS = 2.0
CREATION_DATE  = 2009-12-08T09:00:00
ORIGINATOR     = SPACEBEL

META_START

OBJECT_NAME = CubeSat
OBJECT_ID = CubeSat

CENTER_NAME = EARTH
REF_FRAME   = EME2000
TIME_SYSTEM = UTC

META_STOP

55276 0.0 4264.085921 -832.254441 5618.208465
55276 30.24 4421.338968 -916.904119 5481.941484
55276 59.616 4574.176227 -1000.637990 5340.185449
55276 89.856 4722.444369 -1083.372281 5193.081475
55276 120.096 4865.994574 -1165.024190 5040.776067
55276 150.336 5004.682683 -1245.511970 4883.420976
55276 179.712 5138.369349 -1324.755012 4721.173056
55276 209.952 5266.920177 -1402.673922 4554.194110
55276 240.192 5390.205867 -1479.190611 4382.650733
55276 270.432 5508.102344 -1554.228364 4206.714153
55276 299.808 5620.490896 -1627.711925 4026.560060
55276 330.048 5727.258289 -1699.567573 3842.368439
55276 360.288 5828.296895 -1769.723195 3654.323385
55276 389.664 5923.504803 -1838.108365 3462.612928
55276 419.904 6012.785928 -1904.654414 3267.428846
55276 450.144 6096.050115 -1969.294499 3068.966470
55276 480.384 6173.213236 -2031.963681 2867.424493
55276 509.76 6244.197282 -2092.598981 2663.004770
55276 540.0 6308.930448 -2151.139459 2455.912113
55276 570.24 6367.347214 -2207.526267 2246.354087
55276 599.616 6419.388414 -2261.702718 2034.540796
55276 629.856 6465.001306 -2313.614342 1820.684675
55276 660.096 6504.139627 -2363.208948 1605.000266
55276 690.336 6536.763650 -2410.436673 1387.704006
55276 719.712 6562.840227 -2455.250043 1169.013998
55276 749.952 6582.342825 -2497.604015 949.149793
55276 780.192 6595.251560 -2537.456031 728.332157
55276 810.432 6601.553221 -2574.766059 506.782848
55276 839.808 6601.241283 -2609.496640 284.724385
55276 870.048 6594.315917 -2641.612921 62.379816
55276 900.288 6580.783991 -2671.082697 -160.027512
55276 929.664 6560.659065 -2697.876444 -382.274185
55276 959.904 6533.961375 -2721.967345 -604.136955
55276 990.144 6500.717812 -2743.331325 -825.392970
55276 1020.384 6460.961894 -2761.947067 -1045.820007
55276 1049.76 6414.733726 -2777.796041 -1265.196701
55276 1080.0 6362.079962 -2790.862517 -1483.302774
55276 1110.24 6303.053750 -2801.133583 -1699.919265
55276 1139.616 6237.714672 -2808.599153 -1914.828752
55276 1169.856 6166.128686 -2813.251983 -2127.815578
55276 1200.096 6088.368045 -2815.087667 -2338.666074
55276 1230.336 6004.511226 -2814.104648 -2547.168773
55276 1259.712 5914.642840 -2810.304212 -2753.114631
55276 1289.952 5818.853541 -2803.690487 -2956.297234
55276 1320.192 5717.239929 -2794.270437 -3156.513013
55276 1350.432 5609.904448 -2782.053847 -3353.561445
55276 1379.808 5496.955269 -2767.053318 -3547.245259
55276 1410.048 5378.506184 -2749.284245 -3737.370629
55276 1440.288 5254.676478 -2728.764803 -3923.747373
55276 1469.664 5125.590804 -2705.515922 -4106.189137
55276 1499.904 4991.379055 -2679.561268 -4284.513585
55276 1530.144 4852.176222 -2650.927210 -4458.542576
55276 1560.384 4708.122257 -2619.642795 -4628.102338
55276 1589.76 4559.361925 -2585.739715 -4793.023643
55276 1620.0 4406.044655 -2549.252273 -4953.141971
55276 1650.24 4248.324383 -2510.217343 -5108.297664
55276 1679.616 4086.359397 -2468.674334 -5258.336091
55276 1709.856 3920.312171 -2424.665146 -5403.107789
55276 1740.096 3750.349202 -2378.234126 -5542.468611
55276 1770.336 3576.640836 -2329.428021 -5676.279862
55276 1799.712 3399.361101 -2278.295931 -5804.408432
55276 1829.952 3218.687525 -2224.889255 -5926.726925
55276 1860.192 3034.800961 -2169.261640 -6043.113775
55276 1890.432 2847.885402 -2111.468925 -6153.453361
55276 1919.808 2658.127800 -2051.569083 -6257.636119
55276 1950.048 2465.717877 -1989.622167 -6355.558642
55276 1980.288 2270.847937 -1925.690239 -6447.123776
55276 2009.664 2073.712675 -1859.837319 -6532.240709
55276 2039.904 1874.508985 -1792.129311 -6610.825056
55276 2070.144 1673.435764 -1722.633944 -6682.798936
55276 2100.384 1470.693721 -1651.420700 -6748.091042
55276 2129.76 1266.485172 -1578.560748 -6806.636707
55276 2160.0 1061.013854 -1504.126871 -6858.377962
55276 2190.24 854.484713 -1428.193396 -6903.263589
55276 2219.616 647.103716 -1350.836122 -6941.249165
55276 2249.856 439.077644 -1272.132243 -6972.297102
55276 2280.096 230.613895 -1192.160275 -6996.376683
55276 2310.336 21.920280 -1110.999979 -7013.464089
55276 2339.712 -186.795173 -1028.732284 -7023.542414
55276 2369.952 -395.324425 -945.439207 -7026.601691
55276 2400.192 -603.459623 -861.203775 -7022.638890
55276 2430.432 -810.993305 -776.109945 -7011.657927
55276 2459.808 -1017.718594 -690.242523 -6993.669660
55276 2490.048 -1223.429404 -603.687080 -6968.691876
55276 2520.288 -1427.920634 -516.529874 -6936.749279
55276 2549.664 -1630.988373 -428.857762 -6897.873467
55276 2579.904 -1832.430090 -340.758119 -6852.102901
55276 2610.144 -2032.044836 -252.318755 -6799.482876
55276 2640.384 -2229.633439 -163.627824 -6740.065477
55276 2669.76 -2424.998695 -74.773747 -6673.909532
55276 2700.0 -2617.945565 14.154881 -6601.080560
55276 2730.24 -2808.281365 103.069372 -6521.650713
55276 2759.616 -2995.815954 191.881035 -6435.698707
55276 2789.856 -3180.361921 280.501259 -6343.309755
55276 2820.096 -3361.734776 368.841603 -6244.575483
55276 2850.336 -3539.753125 456.813881 -6139.593852
55276 2879.712 -3714.238860 544.330250 -6028.469063
55276 2909.952 -3885.017328 631.303294 -5911.311461
55276 2940.192 -4051.917514 717.646114 -5788.237433
55276 2970.432 -4214.772206 803.272412 -5659.369300
55276 2999.808 -4373.418171 888.096575 -5524.835196
55276 3030.048 -4527.696318 972.033767 -5384.768956
55276 3060.288 -4677.451856 1055.000007 -5239.309981
55276 3089.664 -4822.534459 1136.912255 -5088.603108
55276 3119.904 -4962.798416 1217.688500 -4932.798472
55276 3150.144 -5098.102781 1297.247836 -4772.051360
55276 3180.384 -5228.311523 1375.510550 -4606.522061
55276 3209.76 -5353.293663 1452.398199 -4436.375713
55276 3240.0 -5472.923411 1527.833691 -4261.782138
55276 3270.24 -5587.080300 1601.741367 -4082.915681
55276 3299.616 -5695.649314 1674.047073 -3899.955034
55276 3329.856 -5798.521004 1744.678241 -3713.083065
55276 3360.096 -5895.591611 1813.563962 -3522.486630
55276 3390.336 -5986.763172 1880.635060 -3328.356398
55276 3419.712 -6071.943630 1945.824162 -3130.886651
55276 3449.952 -6151.046927 2009.065773 -2930.275096
55276 3480.192 -6223.993105 2070.296339 -2726.722664
55276 3510.432 -6290.708387 2129.454316 -2520.433308
55276 3539.808 -6351.125261 2186.480237 -2311.613797
55276 3570.048 -6405.182554 2241.316770 -2100.473508
55276 3600.288 -6452.825501 2293.908782 -1887.224210
55276 3629.664 -6494.005804 2344.203397 -1672.079849
55276 3659.904 -6528.681688 2392.150050 -1455.256330
55276 3690.144 -6556.817947 2437.700544 -1236.971295
55276 3720.384 -6578.385986 2480.809095 -1017.443897
55276 3749.76 -6593.363854 2521.432388 -796.894578
55276 3780.0 -6601.736264 2559.529619 -575.544836
55276 3810.24 -6603.494620 2595.062537 -353.617000
55276 3839.616 -6598.637021 2627.995487 -131.333997
55276 3869.856 -6587.168267 2658.295444 91.080879
55276 3900.096 -6569.099853 2685.932051 313.404195
55276 3930.336 -6544.449959 2710.877649 535.412619
55276 3959.712 -6513.243428 2733.107306 756.883144
55276 3989.952 -6475.511742 2752.598838 977.593324
55276 4020.192 -6431.292985 2769.332839 1197.321502
55276 4050.432 -6380.631801 2783.292693 1415.847042
55276 4079.808 -6323.579350 2794.464594 1632.950555
55276 4110.048 -6260.193243 2802.837557 1848.414125
55276 4140.288 -6190.537487 2808.403428 2062.021535
55276 4169.664 -6114.682409 2811.156890 2273.558489
55276 4199.904 -6032.704585 2811.095467 2482.812828
55276 4230.144 -5944.686748 2808.219526 2689.574749
55276 4260.384 -5850.717707 2802.532270 2893.637021
55276 4289.76 -5750.892244 2794.039735 3094.795188
55276 4320.0 -5645.311016 2782.750782 3292.847782
55276 4350.24 -5534.080446 2768.677081 3487.596521
55276 4379.616 -5417.312605 2751.833102 3678.846511
55276 4409.856 -5295.125100 2732.236094 3866.406440
55276 4440.096 -5167.640943 2709.906065 4050.088765
55276 4470.336 -5034.988422 2684.865758 4229.709903
55276 4499.712 -4897.300972 2657.140628 4405.090408
55276 4529.952 -4754.717025 2626.758812 4576.055150
55276 4560.192 -4607.379876 2593.751096 4742.433485
55276 4590.432 -4455.437529 2558.150885 4904.059422
55276 4619.808 -4299.042542 2519.994164 5060.771785
55276 4650.048 -4138.351877 2479.319460 5212.414369
55276 4680.288 -3973.526732 2436.167802 5358.836090
55276 4709.664 -3804.732380 2390.582677 5499.891132
55276 4739.904 -3632.138002 2342.609983 5635.439085
55276 4770.144 -3455.916511 2292.297983 5765.345080
55276 4800.384 -3276.244381 2239.697255 5889.479917
55276 4829.76 -3093.301469 2184.860640 6007.720188
55276 4860.0 -2907.270833 2127.843183 6119.948394
55276 4890.24 -2718.338549 2068.702086 6226.053055
55276 4919.616 -2526.693526 2007.496640 6325.928812
55276 4949.856 -2332.527319 1944.288172 6419.476533
55276 4980.096 -2136.033938 1879.139980 6506.603396
55276 5010.336 -1937.409655 1812.117271 6587.222981
55276 5039.712 -1736.852813 1743.287094 6661.255350
55276 5069.952 -1534.563628 1672.718274 6728.627116
55276 5100.192 -1330.743995 1600.481347 6789.271517
55276 5130.432 -1125.597290 1526.648483 6843.128469
55276 5159.808 -919.328170 1451.293422 6890.144631
55276 5190.048 -712.142372 1374.491397 6930.273443
55276 5220.288 -504.246519 1296.319064 6963.475176
55276 5249.664 -295.847912 1216.854421 6989.716964
55276 5279.904 -87.154333 1136.176741 7008.972835
55276 5310.144 121.626159 1054.366485 7021.223735
55276 5340.384 330.285428 971.505232 7026.457543
55276 5369.76 538.615461 887.675594 7024.669083
55276 5400.0 746.408574 802.961139 7015.860131
55276 5430.24 953.457608 717.446311 7000.039410
55276 5459.616 1159.556133 631.216345 6977.222582
55276 5489.856 1364.498647 544.357186 6947.432238
55276 5520.096 1568.080777 456.955408 6910.697873
55276 5550.336 1770.099472 369.098126 6867.055861
55276 5579.712 1970.353208 280.872918 6816.549424
55276 5609.952 2168.642180 192.367732 6759.228588
55276 5640.192 2364.768495 103.670807 6695.150144
